[
	{
		"name": "Colombia",
		"dial_code": "+57",
		"code": "CO",
		"flag": "ğŸ‡¨ğŸ‡´"
	},
	{
		"name": "United States",
		"dial_code": "+1",
		"code": "US",
		"flag": "ğŸ‡ºğŸ‡¸"
	},
	{
		"name": "Spain",
		"dial_code": "+34",
		"code": "ES",
		"flag": "ğŸ‡ªğŸ‡¸"
	},
	{
		"name": "Mexico",
		"dial_code": "+52",
		"code": "MX",
		"flag": "ğŸ‡²ğŸ‡½"
	},
	{
		"name": "Argentina",
		"dial_code": "+54",
		"code": "AR",
		"flag": "ğŸ‡¦ğŸ‡·"
	},
	{
		"name": "Peru",
		"dial_code": "+51",
		"code": "PE",
		"flag": "ğŸ‡µğŸ‡ª"
	},
	{
		"name": "Venezuela",
		"dial_code": "+58",
		"code": "VE",
		"flag": "ğŸ‡»ğŸ‡ª"
	},
	{
		"name": "Chile",
		"dial_code": "+56",
		"code": "CL",
		"flag": "ğŸ‡¨ğŸ‡±"
	},
	{
		"name": "Ecuador",
		"dial_code": "+593",
		"code": "EC",
		"flag": "ğŸ‡ªğŸ‡¨"
	},
	{
		"name": "Guatemala",
		"dial_code": "+502",
		"code": "GT",
		"flag": "ğŸ‡¬ğŸ‡¹"
	},
	{
		"name": "Bolivia",
		"dial_code": "+591",
		"code": "BO",
		"flag": "ğŸ‡§ğŸ‡´"
	},
	{
		"name": "Dominican Republic",
		"dial_code": "+1",
		"code": "DO",
		"flag": "ğŸ‡©ğŸ‡´"
	},
	{
		"name": "Honduras",
		"dial_code": "+504",
		"code": "HN",
		"flag": "ğŸ‡­ğŸ‡³"
	},
	{
		"name": "Paraguay",
		"dial_code": "+595",
		"code": "PY",
		"flag": "ğŸ‡µğŸ‡¾"
	},
	{
		"name": "El Salvador",
		"dial_code": "+503",
		"code": "SV",
		"flag": "ğŸ‡¸ğŸ‡»"
	},
	{
		"name": "Nicaragua",
		"dial_code": "+505",
		"code": "NI",
		"flag": "ğŸ‡³ğŸ‡®"
	},
	{
		"name": "Costa Rica",
		"dial_code": "+506",
		"code": "CR",
		"flag": "ğŸ‡¨ğŸ‡·"
	},
	{
		"name": "Panama",
		"dial_code": "+507",
		"code": "PA",
		"flag": "ğŸ‡µğŸ‡¦"
	},
	{
		"name": "Uruguay",
		"dial_code": "+598",
		"code": "UY",
		"flag": "ğŸ‡ºğŸ‡¾"
	},
	{
		"name": "Afghanistan",
		"dial_code": "+93",
		"code": "AF",
		"flag": "ğŸ‡¦ğŸ‡«"
	},
	{
		"name": "Albania",
		"dial_code": "+355",
		"code": "AL",
		"flag": "ğŸ‡¦ğŸ‡±"
	},
	{
		"name": "Algeria",
		"dial_code": "+213",
		"code": "DZ",
		"flag": "ğŸ‡©ğŸ‡¿"
	},
	{
		"name": "Australia",
		"dial_code": "+61",
		"code": "AU",
		"flag": "ğŸ‡¦ğŸ‡º"
	},
	{
		"name": "Brazil",
		"dial_code": "+55",
		"code": "BR",
		"flag": "ğŸ‡§ğŸ‡·"
	},
	{
		"name": "Canada",
		"dial_code": "+1",
		"code": "CA",
		"flag": "ğŸ‡¨ğŸ‡¦"
	},
	{
		"name": "China",
		"dial_code": "+86",
		"code": "CN",
		"flag": "ğŸ‡¨ğŸ‡³"
	},
	{
		"name": "France",
		"dial_code": "+33",
		"code": "FR",
		"flag": "ğŸ‡«ğŸ‡·"
	},
	{
		"name": "Germany",
		"dial_code": "+49",
		"code": "DE",
		"flag": "ğŸ‡©ğŸ‡ª"
	},
	{
		"name": "India",
		"dial_code": "+91",
		"code": "IN",
		"flag": "ğŸ‡®ğŸ‡³"
	},
	{
		"name": "Italy",
		"dial_code": "+39",
		"code": "IT",
		"flag": "ğŸ‡®ğŸ‡¹"
	},
	{
		"name": "Japan",
		"dial_code": "+81",
		"code": "JP",
		"flag": "ğŸ‡¯ğŸ‡µ"
	},
	{
		"name": "United Kingdom",
		"dial_code": "+44",
		"code": "GB",
		"flag": "ğŸ‡¬ğŸ‡§"
	}
]